GSAT0233 (GALILEO 33)   
1 67160U 25302A   26129.51737545  .00000052  00000+0  00000+0 0  9994
2 67160  54.3112 103.2321 0002015 243.6096 300.2883  1.70474487  2466
GSAT0234 (GALILEO 34)   
1 67162U 25302C   26127.44335906  .00000041  00000+0  00000+0 0  9999
2 67162  54.3113 103.2900 0003822 293.6003 237.5257  1.70474609  2487
